start=new Date('2022-03-01T00:00:00.000Z').valueOf();
sats=[{"EPOCH":"2022-02-28T21:43:40.144800","INCLINATION":"53.0536","LAUNCH_DATE":"2020-03-18","RA_OF_ASC_NODE":"284.7318","ELEMENT_SET_NO":"999","CLASSIFICATION_TYPE":"U","DECAY_DATE":null,"ECCENTRICITY":"0.00017640","MEAN_ANOMALY":"292.7011","SITE":"AFETR","OBJECT_ID":"2020-019T","RCS_SIZE":"LARGE","TLE_LINE2":"2 45377  53.0536 284.7318 0001764  67.4164 292.7011 15.06396334108202","FILE":"3334872","COUNTRY_CODE":"US","NORAD_CAT_ID":"45377","APOAPSIS":"548.446","REV_AT_EPOCH":"10820","OBJECT_TYPE":"PAYLOAD","REF_FRAME":"TEME","TIME_SYSTEM":"UTC","ARG_OF_PERICENTER":"67.4164","PERIAPSIS":"546.003","GP_ID":"197409820","CENTER_NAME":"EARTH","MEAN_MOTION":"15.06396334","SEMIMAJOR_AXIS":"6925.360","PERIOD":"95.592","MEAN_MOTION_DOT":"0.00000303","OBJECT_NAME":"STARLINK-1305","MEAN_MOTION_DDOT":"0.0000000000000","EPHEMERIS_TYPE":"0","MEAN_ELEMENT_THEORY":"SGP4","BSTAR":"0.00003922500000","TLE_LINE1":"1 45377U 20019T   22059.90532575  .00000303  00000-0  39225-4 0  9993"},{"SEMIMAJOR_AXIS":"6925.339","PERIOD":"95.592","MEAN_MOTION_DOT":"0.00001735","MEAN_MOTION_DDOT":"0.0000000000000","OBJECT_NAME":"STARLINK-1310","REF_FRAME":"TEME","ARG_OF_PERICENTER":"81.3027","TIME_SYSTEM":"UTC","PERIAPSIS":"546.181","GP_ID":"197408568","MEAN_MOTION":"15.06402988","CENTER_NAME":"EARTH","BSTAR":"0.00013536000000","TLE_LINE1":"1 45378U 20019U   22059.89425853  .00001735  00000-0  13536-3 0  9998","MEAN_ELEMENT_THEORY":"SGP4","EPHEMERIS_TYPE":"0","OBJECT_ID":"2020-019U","RCS_SIZE":"LARGE","REV_AT_EPOCH":"10820","OBJECT_TYPE":"PAYLOAD","FILE":"3334872","TLE_LINE2":"2 45378  53.0529 284.7978 0001478  81.3027 278.8129 15.06402988108200","COUNTRY_CODE":"US","APOAPSIS":"548.228","NORAD_CAT_ID":"45378","CLASSIFICATION_TYPE":"U","ELEMENT_SET_NO":"999","DECAY_DATE":null,"SITE":"AFETR","ECCENTRICITY":"0.00014780","MEAN_ANOMALY":"278.8129","EPOCH":"2022-02-28T21:27:43.936992","LAUNCH_DATE":"2020-03-18","RA_OF_ASC_NODE":"284.7978","INCLINATION":"53.0529"},{"SITE":"AFETR","MEAN_ANOMALY":"288.5648","ECCENTRICITY":"0.00015030","DECAY_DATE":null,"ELEMENT_SET_NO":"999","CLASSIFICATION_TYPE":"U","RA_OF_ASC_NODE":"284.7702","LAUNCH_DATE":"2020-03-18","INCLINATION":"53.0543","EPOCH":"2022-02-28T21:33:03.108096","BSTAR":"0.00005069200000","TLE_LINE1":"1 45379U 20019V   22059.89795264  .00000474  00000-0  50692-4 0  9999","MEAN_ELEMENT_THEORY":"SGP4","EPHEMERIS_TYPE":"0","MEAN_MOTION_DOT":"0.00000474","OBJECT_NAME":"STARLINK-1319","MEAN_MOTION_DDOT":"0.0000000000000","SEMIMAJOR_AXIS":"6925.339","PERIOD":"95.592","GP_ID":"197408818","MEAN_MOTION":"15.06403044","PERIAPSIS":"546.163","CENTER_NAME":"EARTH","REF_FRAME":"TEME","ARG_OF_PERICENTER":"71.5504","TIME_SYSTEM":"UTC","OBJECT_TYPE":"PAYLOAD","REV_AT_EPOCH":"10820","COUNTRY_CODE":"US","NORAD_CAT_ID":"45379","APOAPSIS":"548.245","FILE":"3334872","TLE_LINE2":"2 45379  53.0543 284.7702 0001503  71.5504 288.5648 15.06403044108200","RCS_SIZE":"LARGE","OBJECT_ID":"2020-019V"},{"ELEMENT_SET_NO":"999","CLASSIFICATION_TYPE":"U","DECAY_DATE":null,"ECCENTRICITY":"0.00014690","MEAN_ANOMALY":"285.0150","SITE":"AFETR","EPOCH":"2022-02-28T19:54:51.761664","INCLINATION":"53.0528","LAUNCH_DATE":"2020-03-18","RA_OF_ASC_NODE":"265.0709","REF_FRAME":"TEME","TIME_SYSTEM":"UTC","ARG_OF_PERICENTER":"75.1001","GP_ID":"197409570","PERIAPSIS":"546.194","MEAN_MOTION":"15.06400605","CENTER_NAME":"EARTH","SEMIMAJOR_AXIS":"6925.347","PERIOD":"95.592","MEAN_MOTION_DOT":"0.00000196","OBJECT_NAME":"STARLINK-1207","MEAN_MOTION_DDOT":"0.0000000000000","MEAN_ELEMENT_THEORY":"SGP4","EPHEMERIS_TYPE":"0","BSTAR":"0.00003204900000","TLE_LINE1":"1 45380U 20019W   22059.82976576  .00000196  00000-0  32049-4 0  9998","OBJECT_ID":"2020-019W","RCS_SIZE":"LARGE","TLE_LINE2":"2 45380  53.0528 265.0709 0001469  75.1001 285.0150 15.06400605108465","FILE":"3334872","COUNTRY_CODE":"US","NORAD_CAT_ID":"45380","APOAPSIS":"548.229","REV_AT_EPOCH":"10846","OBJECT_TYPE":"PAYLOAD"},{"EPHEMERIS_TYPE":"0","MEAN_ELEMENT_THEORY":"SGP4","TLE_LINE1":"1 45381U 20019X   22059.84081656 -.00000256  00000-0  16827-5 0  9992","BSTAR":"0.00000168270000","MEAN_MOTION":"15.06400063","GP_ID":"197409321","PERIAPSIS":"546.168","CENTER_NAME":"EARTH","ARG_OF_PERICENTER":"85.7965","TIME_SYSTEM":"UTC","REF_FRAME":"TEME","OBJECT_NAME":"STARLINK-1258","MEAN_MOTION_DDOT":"0.0000000000000","MEAN_MOTION_DOT":"-0.00000256","PERIOD":"95.592","SEMIMAJOR_AXIS":"6925.348","NORAD_CAT_ID":"45381","APOAPSIS":"548.259","COUNTRY_CODE":"US","TLE_LINE2":"2 45381  53.0522 265.0159 0001510  85.7965 274.3196 15.06400063108461","FILE":"3334872","OBJECT_TYPE":"PAYLOAD","REV_AT_EPOCH":"10846","RCS_SIZE":"LARGE","OBJECT_ID":"2020-019X","MEAN_ANOMALY":"274.3196","ECCENTRICITY":"0.00015100","SITE":"AFETR","DECAY_DATE":null,"ELEMENT_SET_NO":"999","CLASSIFICATION_TYPE":"U","INCLINATION":"53.0522","RA_OF_ASC_NODE":"265.0159","LAUNCH_DATE":"2020-03-18","EPOCH":"2022-02-28T20:10:46.550784"},{"SITE":"AFETR","MEAN_ANOMALY":"276.1734","ECCENTRICITY":"0.00012750","DECAY_DATE":null,"CLASSIFICATION_TYPE":"U","ELEMENT_SET_NO":"999","RA_OF_ASC_NODE":"264.8417","LAUNCH_DATE":"2020-03-18","INCLINATION":"53.0540","EPOCH":"2022-02-28T21:14:29.007744","BSTAR":"0.00026536000000","TLE_LINE1":"1 45382U 20019Y   22059.88505796  .00003675  00000-0  26536-3 0  9996","EPHEMERIS_TYPE":"0","MEAN_ELEMENT_THEORY":"SGP4","MEAN_MOTION_DOT":"0.00003675","MEAN_MOTION_DDOT":"0.0000000000000","OBJECT_NAME":"STARLINK-1264","SEMIMAJOR_AXIS":"6925.308","PERIOD":"95.591","CENTER_NAME":"EARTH","GP_ID":"197408069","PERIAPSIS":"546.290","MEAN_MOTION":"15.06413189","REF_FRAME":"TEME","TIME_SYSTEM":"UTC","ARG_OF_PERICENTER":"83.9401","OBJECT_TYPE":"PAYLOAD","REV_AT_EPOCH":"10829","COUNTRY_CODE":"US","APOAPSIS":"548.056","NORAD_CAT_ID":"45382","TLE_LINE2":"2 45382  53.0540 264.8417 0001275  83.9401 276.1734 15.06413189108291","FILE":"3334872","RCS_SIZE":"LARGE","OBJECT_ID":"2020-019Y"},{"EPOCH":"2022-02-28T20:00:09.620352","RA_OF_ASC_NODE":"265.0570","LAUNCH_DATE":"2020-03-18","INCLINATION":"53.0551","DECAY_DATE":null,"ELEMENT_SET_NO":"999","CLASSIFICATION_TYPE":"U","SITE":"AFETR","MEAN_ANOMALY":"278.5483","ECCENTRICITY":"0.00014340","RCS_SIZE":"LARGE","OBJECT_ID":"2020-019Z","OBJECT_TYPE":"PAYLOAD","REV_AT_EPOCH":"10846","APOAPSIS":"548.199","NORAD_CAT_ID":"45383","COUNTRY_CODE":"US","FILE":"3334872","TLE_LINE2":"2 45383  53.0551 265.0570 0001434  81.5669 278.5483 15.06402378108468","OBJECT_NAME":"STARLINK-1266","MEAN_MOTION_DDOT":"0.0000000000000","MEAN_MOTION_DOT":"0.00002021","PERIOD":"95.592","SEMIMAJOR_AXIS":"6925.341","GP_ID":"197408319","PERIAPSIS":"546.213","MEAN_MOTION":"15.06402378","CENTER_NAME":"EARTH","TIME_SYSTEM":"UTC","ARG_OF_PERICENTER":"81.5669","REF_FRAME":"TEME","TLE_LINE1":"1 45383U 20019Z   22059.83344468  .00002021  00000-0  15455-3 0  9991","BSTAR":"0.00015455000000","EPHEMERIS_TYPE":"0","MEAN_ELEMENT_THEORY":"SGP4"},{"BSTAR":"0.00034185000000","TLE_LINE1":"1 45384U 20019AA  22059.88873259  .00004816  00000-0  34185-3 0  9997","EPHEMERIS_TYPE":"0","MEAN_ELEMENT_THEORY":"SGP4","SEMIMAJOR_AXIS":"6925.307","PERIOD":"95.591","MEAN_MOTION_DOT":"0.00004816","OBJECT_NAME":"STARLINK-1267","MEAN_MOTION_DDOT":"0.0000000000000","REF_FRAME":"TEME","TIME_SYSTEM":"UTC","ARG_OF_PERICENTER":"78.0067","GP_ID":"197409071","CENTER_NAME":"EARTH","PERIAPSIS":"545.985","MEAN_MOTION":"15.06413653","REV_AT_EPOCH":"10847","OBJECT_TYPE":"PAYLOAD","TLE_LINE2":"2 45384  53.0538 264.8114 0001713  78.0067 282.1114 15.06413653108479","FILE":"3334872","COUNTRY_CODE":"US","NORAD_CAT_ID":"45384","APOAPSIS":"548.358","OBJECT_ID":"2020-019AA","RCS_SIZE":"LARGE","SITE":"AFETR","ECCENTRICITY":"0.00017130","MEAN_ANOMALY":"282.1114","ELEMENT_SET_NO":"999","CLASSIFICATION_TYPE":"U","DECAY_DATE":null,"LAUNCH_DATE":"2020-03-18","RA_OF_ASC_NODE":"264.8114","INCLINATION":"53.0538","EPOCH":"2022-02-28T21:19:46.495776"},{"MEAN_ANOMALY":"277.6300","ECCENTRICITY":"0.00015740","SITE":"AFETR","DECAY_DATE":null,"ELEMENT_SET_NO":"999","CLASSIFICATION_TYPE":"U","INCLINATION":"53.0535","RA_OF_ASC_NODE":"265.1019","LAUNCH_DATE":"2020-03-18","EPOCH":"2022-02-28T19:49:33.249792","EPHEMERIS_TYPE":"0","MEAN_ELEMENT_THEORY":"SGP4","TLE_LINE1":"1 45386U 20019AC  22059.82607928  .00004087  00000-0  29305-3 0  9999","BSTAR":"0.00029305000000","GP_ID":"197409821","PERIAPSIS":"546.107","MEAN_MOTION":"15.06405321","CENTER_NAME":"EARTH","ARG_OF_PERICENTER":"82.4867","TIME_SYSTEM":"UTC","REF_FRAME":"TEME","MEAN_MOTION_DDOT":"0.0000000000000","OBJECT_NAME":"STARLINK-1272","MEAN_MOTION_DOT":"0.00004087","PERIOD":"95.592","SEMIMAJOR_AXIS":"6925.332","NORAD_CAT_ID":"45386","APOAPSIS":"548.287","COUNTRY_CODE":"US","TLE_LINE2":"2 45386  53.0535 265.1019 0001574  82.4867 277.6300 15.06405321108466","FILE":"3334872","OBJECT_TYPE":"PAYLOAD","REV_AT_EPOCH":"10846","RCS_SIZE":"LARGE","OBJECT_ID":"2020-019AC"},{"SITE":"AFETR","MEAN_ANOMALY":"278.9429","ECCENTRICITY":"0.00015880","DECAY_DATE":null,"CLASSIFICATION_TYPE":"U","ELEMENT_SET_NO":"999","RA_OF_ASC_NODE":"264.9942","LAUNCH_DATE":"2020-03-18","INCLINATION":"53.0538","EPOCH":"2022-02-28T20:21:23.755968","TLE_LINE1":"1 45387U 20019AD  22059.84819162 -.00000184  00000-0  65630-5 0  9995","BSTAR":"0.00000656300000","MEAN_ELEMENT_THEORY":"SGP4","EPHEMERIS_TYPE":"0","MEAN_MOTION_DDOT":"0.0000000000000","OBJECT_NAME":"STARLINK-1274","MEAN_MOTION_DOT":"-0.00000184","PERIOD":"95.592","SEMIMAJOR_AXIS":"6925.344","MEAN_MOTION":"15.06401413","GP_ID":"197408569","PERIAPSIS":"546.109","CENTER_NAME":"EARTH","TIME_SYSTEM":"UTC","ARG_OF_PERICENTER":"81.1740","REF_FRAME":"TEME","OBJECT_TYPE":"PAYLOAD","REV_AT_EPOCH":"10846","NORAD_CAT_ID":"45387","APOAPSIS":"548.309","COUNTRY_CODE":"US","FILE":"3334872","TLE_LINE2":"2 45387  53.0538 264.9942 0001588  81.1740 278.9429 15.06401413108467","RCS_SIZE":"LARGE","OBJECT_ID":"2020-019AD"}];
